NORAD_CAT_ID,OBJECT_NAME,OBJECT_TYPE,EPOCH,MEAN_MOTION,ECCENTRICITY,INCLINATION,RA_OF_ASC_NODE,ARG_OF_PERICENTER,MEAN_ANOMALY,BSTAR,MEAN_MOTION_DOT,MEAN_MOTION_DDOT,TLE_LINE0,TLE_LINE1,TLE_LINE2,SEMIMAJOR_AXIS,PERIOD,APOGEE,PERIGEE,DECAYED
53968.0,STARLINK-4629,PAYLOAD,2023-04-23 12:40:57,15.08834135,0.0001222,53.2147,262.8859,103.4968,256.6161,3.6456e-05,2.92e-06,0.0,0 STARLINK-4629,1 53968U 22125E   23113.52844018  .00000292  00000-0  36456-4 0  9996,2 53968  53.2147 262.8859 0001222 103.4968 256.6161 15.08834135 30630,6917.898,95.438,540.609,538.918,0.0
53968.0,STARLINK-4629,PAYLOAD,2023-04-23 19:02:29,15.0884398,0.0001495,53.2136,261.6943,104.3352,255.7807,0.00041083,6.257e-05,0.0,0 STARLINK-4629,1 53968U 22125E   23113.79339987  .00006257  00000-0  41083-3 0  9997,2 53968  53.2136 261.6943 0001495 104.3352 255.7807 15.08843980 30677,6917.868,95.437,540.767,538.699,0.0
53968.0,STARLINK-4629,PAYLOAD,2023-04-24 02:59:25,15.08850774,0.0001373,53.2142,260.2094,94.4924,265.6225,0.00097161,0.00015214,0.0,0 STARLINK-4629,1 53968U 22125E   23114.12459972  .00015214  00000-0  97161-3 0  9993,2 53968  53.2142 260.2094 0001373  94.4924 265.6225 15.08850774 30791,6917.847,95.437,540.662,538.763,0.0
53968.0,STARLINK-4629,PAYLOAD,2023-04-25 09:11:44,15.08820744,0.000261,53.2141,254.5608,60.3644,299.7608,-0.00090358,-0.00014633,0.0,0 STARLINK-4629,1 53968U 22125E   23115.38315006 -.00014633  00000-0 -90358-3 0  9998,2 53968  53.2141 254.5608 0002610  60.3644 299.7608 15.08820744 30914,6917.939,95.439,541.61,537.999,0.0
53968.0,STARLINK-4629,PAYLOAD,2023-04-26 12:13:20,15.08816966,0.0001253,53.2144,249.5054,51.7027,308.4078,0.00097481,0.0001525,0.0,0 STARLINK-4629,1 53968U 22125E   23116.50926269  .00015250  00000-0  97481-3 0  9990,2 53968  53.2144 249.5054 0001253  51.7027 308.4078 15.08816966 31086,6917.951,95.439,540.683,538.949,0.0
53968.0,STARLINK-4629,PAYLOAD,2023-04-26 18:34:52,15.08839477,0.0001322,53.2151,248.316,47.1781,312.9322,0.0014401,0.00022705,0.0,0 STARLINK-4629,1 53968U 22125E   23116.77422349  .00022705  00000-0  14401-2 0  9992,2 53968  53.2151 248.3160 0001322  47.1781 312.9322 15.08839477 31121,6917.882,95.438,540.662,538.832,0.0
53968.0,STARLINK-4629,PAYLOAD,2023-04-27 08:53:20,15.08872164,0.0001396,53.2154,245.6399,44.0452,316.0651,0.0016079,0.00025417,0.0,0 STARLINK-4629,1 53968U 22125E   23117.37037629  .00025417  00000-0  16079-2 0  9998,2 53968  53.2154 245.6399 0001396  44.0452 316.0651 15.08872164 31287,6917.782,95.436,540.613,538.681,0.0
53968.0,STARLINK-4629,PAYLOAD,2023-04-27 12:04:06,15.08879389,0.000142,53.2153,245.0453,42.9232,317.187,0.0016655,0.00026347,0.0,0 STARLINK-4629,1 53968U 22125E   23117.50285296  .00026347  00000-0  16655-2 0  9991,2 53968  53.2153 245.0453 0001420  42.9232 317.1870 15.08879389 31238,6917.76,95.435,540.607,538.643,0.0
53968.0,STARLINK-4629,PAYLOAD,2023-04-28 08:44:06,15.08857411,0.000115,53.2154,241.1794,62.1144,297.9965,0.0008778,0.00013716,0.0,0 STARLINK-4629,1 53968U 22125E   23118.36396285  .00013716  00000-0  87780-3 0  9991,2 53968  53.2154 241.1794 0001150  62.1144 297.9965 15.08857411 31434,6917.827,95.436,540.488,538.897,0.0
53968.0,STARLINK-4629,PAYLOAD,2023-04-28 11:54:52,15.08854832,0.0001047,53.2153,240.5847,60.6098,299.4999,0.0013112,0.0002065,0.0,0 STARLINK-4629,1 53968U 22125E   23118.49644228  .00020650  00000-0  13112-2 0  9990,2 53968  53.2153 240.5847 0001047  60.6098 299.4999 15.08854832 31383,6917.835,95.437,540.424,538.976,0.0
53968.0,STARLINK-4629,PAYLOAD,2023-04-29 00:37:57,15.08830723,0.0001278,53.2153,238.2061,65.2881,294.8244,0.0013153,0.00020702,0.0,0 STARLINK-4629,1 53968U 22125E   23119.02636278  .00020702  00000-0  13153-2 0  9999,2 53968  53.2153 238.2061 0001278  65.2881 294.8244 15.08830723 31534,6917.909,95.438,540.658,538.89,0.0
53968.0,STARLINK-4629,PAYLOAD,2023-04-29 11:45:39,15.08837767,0.0001264,53.2166,236.1258,73.9841,286.129,0.00084515,0.00013187,0.0,0 STARLINK-4629,1 53968U 22125E   23119.49004527  .00013187  00000-0  84515-3 0  9996,2 53968  53.2166 236.1258 0001264  73.9841 286.1290 15.08837767 31530,6917.887,95.438,540.627,538.878,0.0
53968.0,STARLINK-4629,PAYLOAD,2023-04-29 18:07:12,15.08850275,0.0001269,53.2155,234.9344,73.2794,286.8337,0.00073089,0.00011367,0.0,0 STARLINK-4629,1 53968U 22125E   23119.75500300  .00011367  00000-0  73089-3 0  9997,2 53968  53.2155 234.9344 0001269  73.2794 286.8337 15.08850275 31645,6917.849,95.437,540.592,538.836,0.0
53968.0,STARLINK-4629,PAYLOAD,2023-04-30 13:11:50,15.088436,0.0001042,53.2148,231.3634,103.1935,256.9173,0.00048419,7.427e-05,0.0,0 STARLINK-4629,1 53968U 22125E   23120.54988437  .00007427  00000-0  48419-3 0  9998,2 53968  53.2148 231.3634 0001042 103.1935 256.9173 15.08843600 31694,6917.869,95.437,540.455,539.014,0.0
53968.0,STARLINK-4629,PAYLOAD,2023-04-30 16:22:36,15.08847502,0.0001034,53.2145,230.768,79.8414,280.2695,0.00060473,9.351e-05,0.0,0 STARLINK-4629,1 53968U 22125E   23120.68236452  .00009351  00000-0  60473-3 0  9998,2 53968  53.2145 230.7680 0001034  79.8414 280.2695 15.08847502 31781,6917.857,95.437,540.438,539.007,0.0
53968.0,STARLINK-4629,PAYLOAD,2023-05-01 09:51:51,15.08833842,8.34e-05,53.2148,227.4993,67.3221,292.7859,0.00049535,7.603e-05,0.0,0 STARLINK-4629,1 53968U 22125E   23121.41100889  .00007603  00000-0  49535-3 0  9998,2 53968  53.2148 227.4993 0000834  67.3221 292.7859 15.08833842 31893,6917.899,95.438,540.341,539.187,0.0
53968.0,STARLINK-4629,PAYLOAD,2023-05-01 13:02:37,15.08837734,0.000103,53.2146,226.9044,70.6585,289.4518,0.00074869,0.00011647,0.0,0 STARLINK-4629,1 53968U 22125E   23121.54348980  .00011647  00000-0  74869-3 0  9999,2 53968  53.2146 226.9044 0001030  70.6585 289.4518 15.08837734 31845,6917.887,95.438,540.465,539.04,0.0
53968.0,STARLINK-4629,PAYLOAD,2023-05-01 16:13:23,15.08838731,0.0001104,53.2154,226.3091,78.9388,281.1729,0.00036254,5.486e-05,0.0,0 STARLINK-4629,1 53968U 22125E   23121.67596930  .00005486  00000-0  36254-3 0  9993,2 53968  53.2154 226.3091 0001104  78.9388 281.1729 15.08838731 31867,6917.884,95.438,540.513,538.986,0.0
53968.0,STARLINK-4629,PAYLOAD,2023-05-02 12:53:24,15.08853867,0.0001213,53.2144,222.4462,61.3266,298.7848,0.00073595,0.00011449,0.0,0 STARLINK-4629,1 53968U 22125E   23122.53708814  .00011449  00000-0  73595-3 0  9990,2 53968  53.2144 222.4462 0001213  61.3266 298.7848 15.08853867 32063,6917.838,95.437,540.542,538.864,0.0
53968.0,STARLINK-4629,PAYLOAD,2023-05-02 16:04:10,15.08860985,0.0001204,53.2146,221.8512,64.7864,295.3253,0.00089221,0.00013948,0.0,0 STARLINK-4629,1 53968U 22125E   23122.66956573  .00013948  00000-0  89221-3 0  9990,2 53968  53.2146 221.8512 0001204  64.7864 295.3253 15.08860985 32012,6917.816,95.436,540.514,538.848,0.0
53968.0,STARLINK-4629,PAYLOAD,2023-05-03 00:01:06,15.08845899,9.49e-05,53.2158,220.3617,100.2953,259.8147,0.00023426,3.443e-05,0.0,0 STARLINK-4629,1 53968U 22125E   23123.00076581  .00003443  00000-0  23426-3 0  9995,2 53968  53.2158 220.3617 0000949 100.2953 259.8147 15.08845899 32132,6917.862,95.437,540.384,539.071,0.0
53968.0,STARLINK-4629,PAYLOAD,2023-05-03 11:08:48,15.08835937,0.0001381,53.2158,218.2829,84.8491,275.2659,-1.438e-05,-5.17e-06,0.0,0 STARLINK-4629,1 53968U 22125E   23123.46445039 -.00000517  00000-0 -14380-4 0  9994,2 53968  53.2158 218.2829 0001381  84.8491 275.2659 15.08835937 32208,6917.893,95.438,540.713,538.802,0.0
53968.0,STARLINK-4629,PAYLOAD,2023-05-03 12:44:11,15.088373,0.000127,53.2159,217.9856,85.1501,274.9636,2.6155e-05,1.28e-06,0.0,0 STARLINK-4629,1 53968U 22125E   23123.53069083  .00000128  00000-0  26155-4 0  9992,2 53968  53.2159 217.9856 0001270  85.1501 274.9636 15.08837300 32148,6917.889,95.438,540.632,538.875,0.0
53968.0,STARLINK-4629,PAYLOAD,2023-05-03 17:30:21,15.0884079,0.0001285,53.2159,217.093,88.4603,271.6537,0.00017027,2.423e-05,0.0,0 STARLINK-4629,1 53968U 22125E   23123.72941029  .00002423  00000-0  17027-3 0  9999,2 53968  53.2159 217.0930 0001285  88.4603 271.6537 15.08840790 32171,6917.878,95.438,540.632,538.854,0.0
53968.0,STARLINK-4629,PAYLOAD,2023-05-04 12:34:58,15.08840595,0.0001086,53.2159,213.5226,92.3791,267.7326,0.00010209,1.337e-05,0.0,0 STARLINK-4629,1 53968U 22125E   23124.52429240  .00001337  00000-0  10209-3 0  9992,2 53968  53.2159 213.5226 0001086  92.3791 267.7326 15.08840595 32299,6917.879,95.438,540.495,538.992,0.0
53968.0,STARLINK-4629,PAYLOAD,2023-05-04 15:45:44,15.08847147,0.0001107,53.2164,212.9291,86.3742,273.7377,0.00026458,3.926e-05,0.0,0 STARLINK-4629,1 53968U 22125E   23124.65677067  .00003926  00000-0  26458-3 0  9997,2 53968  53.2164 212.9291 0001107  86.3742 273.7377 15.08847147 32386,6917.859,95.437,540.489,538.958,0.0
53968.0,STARLINK-4629,PAYLOAD,2023-05-05 12:25:46,15.08843854,0.0001258,53.2159,209.0659,70.8028,289.3101,0.0002524,3.732e-05,0.0,0 STARLINK-4629,1 53968U 22125E   23125.51789589  .00003732  00000-0  25240-3 0  9999,2 53968  53.2159 209.0659 0001258  70.8028 289.3101 15.08843854 32511,6917.869,95.437,540.604,538.863,0.0
53968.0,STARLINK-4629,PAYLOAD,2023-05-05 21:58:05,15.08843111,0.0001275,53.2155,207.2816,69.458,290.6549,0.00016692,2.37e-05,0.0,0 STARLINK-4629,1 53968U 22125E   23125.91533578  .00002370  00000-0  16692-3 0  9996,2 53968  53.2155 207.2816 0001275  69.4580 290.6549 15.08843111 32504,6917.871,95.437,540.618,538.854,0.0
53968.0,STARLINK-4629,PAYLOAD,2023-05-07 04:10:23,15.08850911,0.000115,53.214,201.6307,82.0412,278.071,0.00021923,3.204e-05,0.0,0 STARLINK-4629,1 53968U 22125E   23127.17388771  .00003204  00000-0  21923-3 0  9999,2 53968  53.2140 201.6307 0001150  82.0412 278.0710 15.08850911 32762,6917.847,95.437,540.508,538.916,0.0
53968.0,STARLINK-4629,PAYLOAD,2023-05-07 10:31:56,15.08851113,0.0001164,53.2144,200.4409,85.8981,274.2144,0.00019143,2.761e-05,0.0,0 STARLINK-4629,1 53968U 22125E   23127.43884604  .00002761  00000-0  19143-3 0  9992,2 53968  53.2144 200.4409 0001164  85.8981 274.2144 15.08851113 32734,6917.846,95.437,540.517,538.906,0.0
